<?xml version="1.0" encoding="UTF-8"?>
<ndm xmlns:xsi="http://www.w3.org/2001/XMLSchema-instance" xsi:noNamespaceSchemaLocation="https://sanaregistry.org/r/ndmxml_unqualified/ndmxml-2.0.0-master-2.0.xsd">
<omm id="CCSDS_OMM_VERS" version="2.0">
<header><CREATION_DATE/><ORIGINATOR/></header><body><segment><metadata><OBJECT_NAME>KUIPER-00167</OBJECT_NAME><OBJECT_ID>2025-217U</OBJECT_ID><CENTER_NAME>EARTH</CENTER_NAME><REF_FRAME>TEME</REF_FRAME><TIME_SYSTEM>UTC</TIME_SYSTEM><MEAN_ELEMENT_THEORY>SGP4</MEAN_ELEMENT_THEORY></metadata><data><meanElements><EPOCH>2025-12-17T14:00:03.000384</EPOCH><MEAN_MOTION>14.85616415</MEAN_MOTION><ECCENTRICITY>.00104941</ECCENTRICITY><INCLINATION>51.8987</INCLINATION><RA_OF_ASC_NODE>48.7211</RA_OF_ASC_NODE><ARG_OF_PERICENTER>354.8156</ARG_OF_PERICENTER><MEAN_ANOMALY>265.9424</MEAN_ANOMALY></meanElements><tleParameters><EPHEMERIS_TYPE>0</EPHEMERIS_TYPE><CLASSIFICATION_TYPE>U</CLASSIFICATION_TYPE><NORAD_CAT_ID>65780</NORAD_CAT_ID><ELEMENT_SET_NO>999</ELEMENT_SET_NO><REV_AT_EPOCH>130</REV_AT_EPOCH><BSTAR>.15016993E-2</BSTAR><MEAN_MOTION_DOT>.12931E-3</MEAN_MOTION_DOT><MEAN_MOTION_DDOT>0</MEAN_MOTION_DDOT></tleParameters></data></segment></body></omm>
<omm id="CCSDS_OMM_VERS" version="2.0">
<header><CREATION_DATE/><ORIGINATOR/></header><body><segment><metadata><OBJECT_NAME>KUIPER-00168</OBJECT_NAME><OBJECT_ID>2025-217V</OBJECT_ID><CENTER_NAME>EARTH</CENTER_NAME><REF_FRAME>TEME</REF_FRAME><TIME_SYSTEM>UTC</TIME_SYSTEM><MEAN_ELEMENT_THEORY>SGP4</MEAN_ELEMENT_THEORY></metadata><data><meanElements><EPOCH>2025-12-17T13:17:24.742176</EPOCH><MEAN_MOTION>15.37798706</MEAN_MOTION><ECCENTRICITY>.00010869</ECCENTRICITY><INCLINATION>51.8720</INCLINATION><RA_OF_ASC_NODE>40.5177</RA_OF_ASC_NODE><ARG_OF_PERICENTER>36.6492</ARG_OF_PERICENTER><MEAN_ANOMALY>323.4569</MEAN_ANOMALY></meanElements><tleParameters><EPHEMERIS_TYPE>0</EPHEMERIS_TYPE><CLASSIFICATION_TYPE>U</CLASSIFICATION_TYPE><NORAD_CAT_ID>65781</NORAD_CAT_ID><ELEMENT_SET_NO>999</ELEMENT_SET_NO><REV_AT_EPOCH>1279</REV_AT_EPOCH><BSTAR>.75936705E-3</BSTAR><MEAN_MOTION_DOT>.2836E-3</MEAN_MOTION_DOT><MEAN_MOTION_DDOT>0</MEAN_MOTION_DDOT></tleParameters></data></segment></body></omm>
<omm id="CCSDS_OMM_VERS" version="2.0">
<header><CREATION_DATE/><ORIGINATOR/></header><body><segment><metadata><OBJECT_NAME>KUIPER-00169</OBJECT_NAME><OBJECT_ID>2025-217W</OBJECT_ID><CENTER_NAME>EARTH</CENTER_NAME><REF_FRAME>TEME</REF_FRAME><TIME_SYSTEM>UTC</TIME_SYSTEM><MEAN_ELEMENT_THEORY>SGP4</MEAN_ELEMENT_THEORY></metadata><data><meanElements><EPOCH>2025-12-17T14:00:03.000384</EPOCH><MEAN_MOTION>15.26451787</MEAN_MOTION><ECCENTRICITY>.00053864</ECCENTRICITY><INCLINATION>51.8775</INCLINATION><RA_OF_ASC_NODE>41.2582</RA_OF_ASC_NODE><ARG_OF_PERICENTER>13.2438</ARG_OF_PERICENTER><MEAN_ANOMALY>92.9529</MEAN_ANOMALY></meanElements><tleParameters><EPHEMERIS_TYPE>0</EPHEMERIS_TYPE><CLASSIFICATION_TYPE>U</CLASSIFICATION_TYPE><NORAD_CAT_ID>65782</NORAD_CAT_ID><ELEMENT_SET_NO>999</ELEMENT_SET_NO><REV_AT_EPOCH>410</REV_AT_EPOCH><BSTAR>-.71731616E-1</BSTAR><MEAN_MOTION_DOT>-.1714261E-1</MEAN_MOTION_DOT><MEAN_MOTION_DDOT>0</MEAN_MOTION_DDOT></tleParameters></data></segment></body></omm>
<omm id="CCSDS_OMM_VERS" version="2.0">
<header><CREATION_DATE/><ORIGINATOR/></header><body><segment><metadata><OBJECT_NAME>KUIPER-00170</OBJECT_NAME><OBJECT_ID>2025-217X</OBJECT_ID><CENTER_NAME>EARTH</CENTER_NAME><REF_FRAME>TEME</REF_FRAME><TIME_SYSTEM>UTC</TIME_SYSTEM><MEAN_ELEMENT_THEORY>SGP4</MEAN_ELEMENT_THEORY></metadata><data><meanElements><EPOCH>2025-12-17T14:00:03.000384</EPOCH><MEAN_MOTION>15.11020748</MEAN_MOTION><ECCENTRICITY>.00083178</ECCENTRICITY><INCLINATION>51.8861</INCLINATION><RA_OF_ASC_NODE>43.7267</RA_OF_ASC_NODE><ARG_OF_PERICENTER>21.1001</ARG_OF_PERICENTER><MEAN_ANOMALY>318.2845</MEAN_ANOMALY></meanElements><tleParameters><EPHEMERIS_TYPE>0</EPHEMERIS_TYPE><CLASSIFICATION_TYPE>U</CLASSIFICATION_TYPE><NORAD_CAT_ID>65783</NORAD_CAT_ID><ELEMENT_SET_NO>999</ELEMENT_SET_NO><REV_AT_EPOCH>482</REV_AT_EPOCH><BSTAR>-.46582172E-1</BSTAR><MEAN_MOTION_DOT>-.733673E-2</MEAN_MOTION_DOT><MEAN_MOTION_DDOT>0</MEAN_MOTION_DDOT></tleParameters></data></segment></body></omm>
<omm id="CCSDS_OMM_VERS" version="2.0">
<header><CREATION_DATE/><ORIGINATOR/></header><body><segment><metadata><OBJECT_NAME>KUIPER-00171</OBJECT_NAME><OBJECT_ID>2025-217Y</OBJECT_ID><CENTER_NAME>EARTH</CENTER_NAME><REF_FRAME>TEME</REF_FRAME><TIME_SYSTEM>UTC</TIME_SYSTEM><MEAN_ELEMENT_THEORY>SGP4</MEAN_ELEMENT_THEORY></metadata><data><meanElements><EPOCH>2025-12-17T13:40:40.075392</EPOCH><MEAN_MOTION>15.70625584</MEAN_MOTION><ECCENTRICITY>.00102869</ECCENTRICITY><INCLINATION>51.8569</INCLINATION><RA_OF_ASC_NODE>31.6611</RA_OF_ASC_NODE><ARG_OF_PERICENTER>32.8885</ARG_OF_PERICENTER><MEAN_ANOMALY>327.2754</MEAN_ANOMALY></meanElements><tleParameters><EPHEMERIS_TYPE>0</EPHEMERIS_TYPE><CLASSIFICATION_TYPE>U</CLASSIFICATION_TYPE><NORAD_CAT_ID>65784</NORAD_CAT_ID><ELEMENT_SET_NO>999</ELEMENT_SET_NO><REV_AT_EPOCH>1291</REV_AT_EPOCH><BSTAR>.13931095E-2</BSTAR><MEAN_MOTION_DOT>.179261E-2</MEAN_MOTION_DOT><MEAN_MOTION_DDOT>0</MEAN_MOTION_DDOT></tleParameters></data></segment></body></omm>
<omm id="CCSDS_OMM_VERS" version="2.0">
<header><CREATION_DATE/><ORIGINATOR/></header><body><segment><metadata><OBJECT_NAME>KUIPER-00172</OBJECT_NAME><OBJECT_ID>2025-217Z</OBJECT_ID><CENTER_NAME>EARTH</CENTER_NAME><REF_FRAME>TEME</REF_FRAME><TIME_SYSTEM>UTC</TIME_SYSTEM><MEAN_ELEMENT_THEORY>SGP4</MEAN_ELEMENT_THEORY></metadata><data><meanElements><EPOCH>2025-12-17T14:00:03.000384</EPOCH><MEAN_MOTION>15.30343800</MEAN_MOTION><ECCENTRICITY>.00051589</ECCENTRICITY><INCLINATION>51.8762</INCLINATION><RA_OF_ASC_NODE>40.6609</RA_OF_ASC_NODE><ARG_OF_PERICENTER>13.4982</ARG_OF_PERICENTER><MEAN_ANOMALY>353.3414</MEAN_ANOMALY></meanElements><tleParameters><EPHEMERIS_TYPE>0</EPHEMERIS_TYPE><CLASSIFICATION_TYPE>U</CLASSIFICATION_TYPE><NORAD_CAT_ID>65785</NORAD_CAT_ID><ELEMENT_SET_NO>999</ELEMENT_SET_NO><REV_AT_EPOCH>580</REV_AT_EPOCH><BSTAR>-.34680102E-1</BSTAR><MEAN_MOTION_DOT>-.956598E-2</MEAN_MOTION_DOT><MEAN_MOTION_DDOT>0</MEAN_MOTION_DDOT></tleParameters></data></segment></body></omm>
<omm id="CCSDS_OMM_VERS" version="2.0">
<header><CREATION_DATE/><ORIGINATOR/></header><body><segment><metadata><OBJECT_NAME>KUIPER-00173</OBJECT_NAME><OBJECT_ID>2025-217AA</OBJECT_ID><CENTER_NAME>EARTH</CENTER_NAME><REF_FRAME>TEME</REF_FRAME><TIME_SYSTEM>UTC</TIME_SYSTEM><MEAN_ELEMENT_THEORY>SGP4</MEAN_ELEMENT_THEORY></metadata><data><meanElements><EPOCH>2025-12-17T14:00:03.000384</EPOCH><MEAN_MOTION>15.23385127</MEAN_MOTION><ECCENTRICITY>.00027837</ECCENTRICITY><INCLINATION>51.8794</INCLINATION><RA_OF_ASC_NODE>41.4081</RA_OF_ASC_NODE><ARG_OF_PERICENTER>333.2426</ARG_OF_PERICENTER><MEAN_ANOMALY>10.8767</MEAN_ANOMALY></meanElements><tleParameters><EPHEMERIS_TYPE>0</EPHEMERIS_TYPE><CLASSIFICATION_TYPE>U</CLASSIFICATION_TYPE><NORAD_CAT_ID>65786</NORAD_CAT_ID><ELEMENT_SET_NO>999</ELEMENT_SET_NO><REV_AT_EPOCH>539</REV_AT_EPOCH><BSTAR>-.39872022E-1</BSTAR><MEAN_MOTION_DOT>-.893494E-2</MEAN_MOTION_DOT><MEAN_MOTION_DDOT>0</MEAN_MOTION_DDOT></tleParameters></data></segment></body></omm>
<omm id="CCSDS_OMM_VERS" version="2.0">
<header><CREATION_DATE/><ORIGINATOR/></header><body><segment><metadata><OBJECT_NAME>KUIPER-00174</OBJECT_NAME><OBJECT_ID>2025-217AB</OBJECT_ID><CENTER_NAME>EARTH</CENTER_NAME><REF_FRAME>TEME</REF_FRAME><TIME_SYSTEM>UTC</TIME_SYSTEM><MEAN_ELEMENT_THEORY>SGP4</MEAN_ELEMENT_THEORY></metadata><data><meanElements><EPOCH>2025-12-17T15:00:18.035136</EPOCH><MEAN_MOTION>15.37411351</MEAN_MOTION><ECCENTRICITY>.00040969</ECCENTRICITY><INCLINATION>51.8735</INCLINATION><RA_OF_ASC_NODE>40.2434</RA_OF_ASC_NODE><ARG_OF_PERICENTER>332.2335</ARG_OF_PERICENTER><MEAN_ANOMALY>27.8432</MEAN_ANOMALY></meanElements><tleParameters><EPHEMERIS_TYPE>0</EPHEMERIS_TYPE><CLASSIFICATION_TYPE>U</CLASSIFICATION_TYPE><NORAD_CAT_ID>65787</NORAD_CAT_ID><ELEMENT_SET_NO>999</ELEMENT_SET_NO><REV_AT_EPOCH>1280</REV_AT_EPOCH><BSTAR>-.4437558E-2</BSTAR><MEAN_MOTION_DOT>-.162276E-2</MEAN_MOTION_DOT><MEAN_MOTION_DDOT>0</MEAN_MOTION_DDOT></tleParameters></data></segment></body></omm>

</ndm>
