KUIPER-00167            
1 65780U 25217U   25351.58336806  .00012931  00000+0  15017-2 0  9999
2 65780  51.8987  48.7211 0010494 354.8156 265.9424 14.85616415  1306
KUIPER-00168            
1 65781U 25217V   25351.55375859  .00028360  00000+0  75937-3 0  9999
2 65781  51.8720  40.5177 0001086  36.6492 323.4569 15.37798706 12795
KUIPER-00169            
1 65782U 25217W   25351.58336806 -.01714261  00000+0 -71732-1 0  9994
2 65782  51.8775  41.2582 0005386  13.2438  92.9529 15.26451787  4105
KUIPER-00170            
1 65783U 25217X   25351.58336806 -.00733673  00000+0 -46582-1 0  9997
2 65783  51.8861  43.7267 0008317  21.1001 318.2845 15.11020748  4827
KUIPER-00171            
1 65784U 25217Y   25351.56990828  .00179261  00000+0  13931-2 0  9994
2 65784  51.8569  31.6611 0010286  32.8885 327.2754 15.70625584 12911
KUIPER-00172            
1 65785U 25217Z   25351.58336806 -.00956598  00000+0 -34680-1 0  9998
2 65785  51.8762  40.6609 0005158  13.4982 353.3414 15.30343800  5806
KUIPER-00173            
1 65786U 25217AA  25351.58336806 -.00893494  00000+0 -39872-1 0  9992
2 65786  51.8794  41.4081 0002783 333.2426  10.8767 15.23385127  5392
KUIPER-00174            
1 65787U 25217AB  25351.62520874 -.00162276  00000+0 -44376-2 0  9991
2 65787  51.8735  40.2434 0004096 332.2335  27.8432 15.37411351 12809
